IRIDIUM 106             
1 41917U 17003A   24339.97057919  .00000203  00000+0  65601-4 0  9997
2 41917  86.3951 322.2211 0001962  83.1432 276.9987 14.34217164413052
IRIDIUM 103             
1 41918U 17003B   24339.95789739  .00000069  00000+0  17697-4 0  9990
2 41918  86.3952 322.1279 0002556  73.3052 286.8424 14.34216270413071
IRIDIUM 109             
1 41919U 17003C   24339.96423718  .00000793  00000+0  27602-3 0  9994
2 41919  86.3953 322.1752 0002464  89.4526 270.6952 14.34215857413045
IRIDIUM 102             
1 41920U 17003D   24340.00228882  .00000361  00000+0  12199-3 0  9994
2 41920  86.3950 322.0947 0002207  90.3149 269.8300 14.34213608413135
IRIDIUM 105             
1 41921U 17003E   24339.90327730  .00000908  00000+0  31707-3 0  9997
2 41921  86.3952 290.5550 0002162  82.4914 277.6527 14.34220906414979
IRIDIUM 104             
1 41922U 17003F   24339.94521006  .00000634  00000+0  21930-3 0  9997
2 41922  86.3957 322.1525 0002869  86.8059 273.3465 14.34216856413119
IRIDIUM 114             
1 41923U 17003G   24340.43993373  .00000495  00000+0  16974-3 0  9991
2 41923  86.3949 321.9312 0002318  81.1944 278.9514 14.34218998413184
IRIDIUM 108             
1 41924U 17003H   24339.91007509  .00000377  00000+0  12772-3 0  9991
2 41924  86.3946 290.4659 0002009  84.0749 276.0675 14.34217828414941
